G21
G17
G90
M3 S0
G4 P0.2
M3 S0
G4 P0.2
G1 X7.000 Y10.000 F3000
M3 S1000
G4 P0.1
G1 X13.000 Y10.000 F1500
M3 S0
G4 P0.2
M3 S0
G4 P0.2
G1 X10.000 Y13.000 F3000
M3 S1000
G4 P0.1
G1 X10.000 Y7.000 F1500
M3 S0
G4 P0.2
M3 S0
G4 P0.2
G1 X20.000 Y20.000 F3000
M3 S1000
G4 P0.1
G1 X40.000 Y20.000 F1500
G1 X40.000 Y40.000 F1500
G1 X20.000 Y40.000 F1500
G1 X20.000 Y20.000 F1500
M3 S0
G4 P0.2
M3 S0
G4 P0.2
G1 X20.000 Y20.000 F3000
M3 S1000
G4 P0.1
G1 X40.000 Y40.000 F1500
M3 S0
G4 P0.2
M3 S0
G4 P0.2
G1 X20.000 Y40.000 F3000
M3 S1000
G4 P0.1
G1 X40.000 Y20.000 F1500
M3 S0
G4 P0.2
M3 S0
G4 P0.2
G1 X20.000 Y60.000 F3000
M3 S1000
G4 P0.1
G1 X120.000 Y60.000 F1500
M3 S0
G4 P0.2
M3 S0
G4 P0.2
G1 X20.000 Y64.000 F3000
M3 S1000
G4 P0.1
G1 X20.000 Y56.000 F1500
M3 S0
G4 P0.2
M3 S0
G4 P0.2
G1 X30.000 Y62.000 F3000
M3 S1000
G4 P0.1
G1 X30.000 Y58.000 F1500
M3 S0
G4 P0.2
M3 S0
G4 P0.2
G1 X40.000 Y62.000 F3000
M3 S1000
G4 P0.1
G1 X40.000 Y58.000 F1500
M3 S0
G4 P0.2
M3 S0
G4 P0.2
G1 X50.000 Y62.000 F3000
M3 S1000
G4 P0.1
G1 X50.000 Y58.000 F1500
M3 S0
G4 P0.2
M3 S0
G4 P0.2
G1 X60.000 Y62.000 F3000
M3 S1000
G4 P0.1
G1 X60.000 Y58.000 F1500
M3 S0
G4 P0.2
M3 S0
G4 P0.2
G1 X70.000 Y64.000 F3000
M3 S1000
G4 P0.1
G1 X70.000 Y56.000 F1500
M3 S0
G4 P0.2
M3 S0
G4 P0.2
G1 X80.000 Y62.000 F3000
M3 S1000
G4 P0.1
G1 X80.000 Y58.000 F1500
M3 S0
G4 P0.2
M3 S0
G4 P0.2
G1 X90.000 Y62.000 F3000
M3 S1000
G4 P0.1
G1 X90.000 Y58.000 F1500
M3 S0
G4 P0.2
M3 S0
G4 P0.2
G1 X100.000 Y62.000 F3000
M3 S1000
G4 P0.1
G1 X100.000 Y58.000 F1500
M3 S0
G4 P0.2
M3 S0
G4 P0.2
G1 X110.000 Y62.000 F3000
M3 S1000
G4 P0.1
G1 X110.000 Y58.000 F1500
M3 S0
G4 P0.2
M3 S0
G4 P0.2
G1 X120.000 Y64.000 F3000
M3 S1000
G4 P0.1
G1 X120.000 Y56.000 F1500
M3 S0
G4 P0.2
M3 S0
G4 P0.2
G1 X150.000 Y20.000 F3000
M3 S1000
G4 P0.1
G1 X150.000 Y120.000 F1500
M3 S0
G4 P0.2
M3 S0
G4 P0.2
G1 X146.000 Y20.000 F3000
M3 S1000
G4 P0.1
G1 X154.000 Y20.000 F1500
M3 S0
G4 P0.2
M3 S0
G4 P0.2
G1 X148.000 Y30.000 F3000
M3 S1000
G4 P0.1
G1 X152.000 Y30.000 F1500
M3 S0
G4 P0.2
M3 S0
G4 P0.2
G1 X148.000 Y40.000 F3000
M3 S1000
G4 P0.1
G1 X152.000 Y40.000 F1500
M3 S0
G4 P0.2
M3 S0
G4 P0.2
G1 X148.000 Y50.000 F3000
M3 S1000
G4 P0.1
G1 X152.000 Y50.000 F1500
M3 S0
G4 P0.2
M3 S0
G4 P0.2
G1 X148.000 Y60.000 F3000
M3 S1000
G4 P0.1
G1 X152.000 Y60.000 F1500
M3 S0
G4 P0.2
M3 S0
G4 P0.2
G1 X146.000 Y70.000 F3000
M3 S1000
G4 P0.1
G1 X154.000 Y70.000 F1500
M3 S0
G4 P0.2
M3 S0
G4 P0.2
G1 X148.000 Y80.000 F3000
M3 S1000
G4 P0.1
G1 X152.000 Y80.000 F1500
M3 S0
G4 P0.2
M3 S0
G4 P0.2
G1 X148.000 Y90.000 F3000
M3 S1000
G4 P0.1
G1 X152.000 Y90.000 F1500
M3 S0
G4 P0.2
M3 S0
G4 P0.2
G1 X148.000 Y100.000 F3000
M3 S1000
G4 P0.1
G1 X152.000 Y100.000 F1500
M3 S0
G4 P0.2
M3 S0
G4 P0.2
G1 X148.000 Y110.000 F3000
M3 S1000
G4 P0.1
G1 X152.000 Y110.000 F1500
M3 S0
G4 P0.2
M3 S0
G4 P0.2
G1 X146.000 Y120.000 F3000
M3 S1000
G4 P0.1
G1 X154.000 Y120.000 F1500
M3 S0
G4 P0.2
M3 S0
G4 P0.2
G1 X60.000 Y20.000 F3000
M3 S1000
G4 P0.1
G1 X64.000 Y20.000 F1500
M3 S0
G4 P0.2
M3 S0
G4 P0.2
G1 X62.000 Y22.000 F3000
M3 S1000
G4 P0.1
G1 X62.000 Y18.000 F1500
M3 S0
G4 P0.2
M3 S0
G4 P0.2
G1 X80.000 Y30.000 F3000
M3 S1000
G4 P0.1
G1 X84.000 Y30.000 F1500
M3 S0
G4 P0.2
M3 S0
G4 P0.2
G1 X82.000 Y32.000 F3000
M3 S1000
G4 P0.1
G1 X82.000 Y28.000 F1500
M3 S0
G4 P0.2
M3 S0
G4 P0.2
G1 X100.000 Y40.000 F3000
M3 S1000
G4 P0.1
G1 X104.000 Y40.000 F1500
M3 S0
G4 P0.2
M3 S0
G4 P0.2
G1 X102.000 Y42.000 F3000
M3 S1000
G4 P0.1
G1 X102.000 Y38.000 F1500
M3 S0
G4 P0.2
M3 S0
G4 P0.2
G1 X0 Y0 F3000
M2
